NORAD_CAT_ID,OBJECT_NAME,OBJECT_TYPE,EPOCH,MEAN_MOTION,ECCENTRICITY,INCLINATION,RA_OF_ASC_NODE,ARG_OF_PERICENTER,MEAN_ANOMALY,BSTAR,MEAN_MOTION_DOT,MEAN_MOTION_DDOT,TLE_LINE0,TLE_LINE1,TLE_LINE2,SEMIMAJOR_AXIS,PERIOD,APOGEE,PERIGEE,DECAYED
51747.0,STARLINK-3446,PAYLOAD,2023-09-20 19:53:11,15.08827042,0.0001183,53.218,43.2887,76.0336,284.0787,-3.7974e-05,-8.92e-06,0.0,0 STARLINK-3446,1 51747U 22016AK  23263.82860656 -.00000892  00000-0 -37974-4 0  9997,2 51747  53.2180  43.2887 0001183  76.0336 284.0787 15.08827042 87564,6917.92,95.438,540.603,538.967,0.0
51747.0,STARLINK-3446,PAYLOAD,2023-09-21 08:36:16,15.08856068,0.0001132,53.2183,40.9093,67.976,292.1352,-0.00032396,-5.442e-05,0.0,0 STARLINK-3446,1 51747U 22016AK  23264.35852294 -.00005442  00000-0 -32396-3 0  9993,2 51747  53.2183  40.9093 0001132  67.9760 292.1352 15.08856068 88776,6917.831,95.437,540.479,538.913,0.0
51747.0,STARLINK-3446,PAYLOAD,2023-09-21 13:22:25,15.08843497,0.0001228,53.2188,40.0175,71.4481,288.6644,-3.7841e-05,-8.9e-06,0.0,0 STARLINK-3446,1 51747U 22016AK  23264.55723966 -.00000890  00000-0 -37841-4 0  9991,2 51747  53.2188  40.0175 0001228  71.4481 288.6644 15.08843497 87673,6917.87,95.437,540.584,538.885,0.0
51747.0,STARLINK-3446,PAYLOAD,2023-09-21 16:33:11,15.08850379,0.0001245,53.2193,39.4242,76.6092,283.5039,3.9657e-05,3.43e-06,0.0,0 STARLINK-3446,1 51747U 22016AK  23264.68971326  .00000343  00000-0  39657-4 0  9998,2 51747  53.2193  39.4242 0001245  76.6092 283.5039 15.08850379 87691,6917.849,95.437,540.575,538.852,0.0
51747.0,STARLINK-3446,PAYLOAD,2023-09-22 10:02:26,15.08832229,0.0001315,53.2193,36.1536,72.1413,287.9723,0.00020875,3.035e-05,0.0,0 STARLINK-3446,1 51747U 22016AK  23265.41836093  .00003035  00000-0  20875-3 0  9993,2 51747  53.2193  36.1536 0001315  72.1413 287.9723 15.08832229 88937,6917.904,95.438,540.679,538.859,0.0
51747.0,STARLINK-3446,PAYLOAD,2023-09-22 13:13:12,15.08836227,0.0001322,53.2194,35.5588,69.9843,290.1291,0.00022788,3.34e-05,0.0,0 STARLINK-3446,1 51747U 22016AK  23265.55083804  .00003340  00000-0  22788-3 0  9996,2 51747  53.2194  35.5588 0001322  69.9843 290.1291 15.08836227 87822,6917.892,95.438,540.671,538.842,0.0
51747.0,STARLINK-3446,PAYLOAD,2023-09-22 16:23:58,15.08845111,0.0001387,53.2184,34.9632,59.6536,300.4593,0.00026816,3.983e-05,0.0,0 STARLINK-3446,1 51747U 22016AK  23265.68331286  .00003983  00000-0  26816-3 0  9999,2 51747  53.2184  34.9632 0001387  59.6536 300.4593 15.08845111 88979,6917.865,95.437,540.689,538.77,0.0
51747.0,STARLINK-3446,PAYLOAD,2023-09-23 01:56:17,15.08842111,0.0001213,53.2189,33.179,73.4332,286.6794,0.00017536,2.504e-05,0.0,0 STARLINK-3446,1 51747U 22016AK  23266.08075649  .00002504  00000-0  17536-3 0  9999,2 51747  53.2189  33.1790 0001213  73.4332 286.6794 15.08842111 89039,6917.874,95.437,540.578,538.9,0.0
51747.0,STARLINK-3446,PAYLOAD,2023-09-23 13:03:59,15.08845727,0.0001489,53.2179,31.0991,71.6785,288.4369,5.6358e-05,6.09e-06,0.0,0 STARLINK-3446,1 51747U 22016AK  23266.54443750  .00000609  00000-0  56358-4 0  9992,2 51747  53.2179  31.0991 0001489  71.6785 288.4369 15.08845727 87970,6917.863,95.437,540.758,538.698,0.0
51747.0,STARLINK-3446,PAYLOAD,2023-09-24 11:19:23,15.08844112,0.0001551,53.2196,26.9369,77.437,282.6795,2.877e-05,1.7e-06,0.0,0 STARLINK-3446,1 51747U 22016AK  23267.47179698  .00000170  00000-0  28770-4 0  9992,2 51747  53.2196  26.9369 0001551  77.4370 282.6795 15.08844112 89243,6917.868,95.437,540.806,538.66,0.0
51747.0,STARLINK-3446,PAYLOAD,2023-09-24 12:54:46,15.08844736,0.0001555,53.2197,26.6396,77.4599,282.6567,3.2841e-05,2.35e-06,0.0,0 STARLINK-3446,1 51747U 22016AK  23267.53803648  .00000235  00000-0  32841-4 0  9994,2 51747  53.2197  26.6396 0001555  77.4599 282.6567 15.08844736 88123,6917.866,95.437,540.807,538.655,0.0
51747.0,STARLINK-3446,PAYLOAD,2023-09-24 14:30:09,15.08845388,0.0001203,53.219,26.3426,52.3551,307.755,6.7452e-05,7.86e-06,0.0,0 STARLINK-3446,1 51747U 22016AK  23267.60427471  .00000786  00000-0  67452-4 0  9995,2 51747  53.2190  26.3426 0001203  52.3551 307.7550 15.08845388 88133,6917.864,95.437,540.561,538.897,0.0
51747.0,STARLINK-3446,PAYLOAD,2023-09-25 14:20:55,15.08848776,0.0001501,53.2193,21.8824,88.7348,271.3816,0.00011722,1.578e-05,0.0,0 STARLINK-3446,1 51747U 22016AK  23268.59787021  .00001578  00000-0  11722-3 0  9992,2 51747  53.2193  21.8824 0001501  88.7348 271.3816 15.08848776 88287,6917.854,95.437,540.757,538.68,0.0
51747.0,STARLINK-3446,PAYLOAD,2023-09-26 12:36:21,15.08834924,0.0001544,53.2198,17.7198,93.3714,266.7455,1.9051e-05,1.5e-07,0.0,0 STARLINK-3446,1 51747U 22016AK  23269.52524324  .00000015  00000-0  19051-4 0  9990,2 51747  53.2198  17.7198 0001544  93.3714 266.7455 15.08834924 89554,6917.896,95.438,540.829,538.693,0.0
51747.0,STARLINK-3446,PAYLOAD,2023-09-26 17:22:30,15.08840576,0.0001492,53.2187,16.8248,97.0689,263.0473,6.3963e-05,7.3e-06,0.0,0 STARLINK-3446,1 51747U 22016AK  23269.72395848  .00000730  00000-0  63963-4 0  9994,2 51747  53.2187  16.8248 0001492  97.0689 263.0473 15.08840576 88450,6917.879,95.438,540.776,538.711,0.0
51747.0,STARLINK-3446,PAYLOAD,2023-09-27 12:27:07,15.08847028,0.0001617,53.2183,13.2546,96.6043,263.5133,0.00016875,2.399e-05,0.0,0 STARLINK-3446,1 51747U 22016AK  23270.51883669  .00002399  00000-0  16875-3 0  9998,2 51747  53.2183  13.2546 0001617  96.6043 263.5133 15.08847028 88576,6917.859,95.437,540.843,538.605,0.0
51747.0,STARLINK-3446,PAYLOAD,2023-09-28 12:17:55,15.08839913,0.0001175,53.2184,8.801,81.7991,278.3135,-2.7361e-06,-3.31e-06,0.0,0 STARLINK-3446,1 51747U 22016AK  23271.51244648 -.00000331  00000-0 -27361-5 0  9997,2 51747  53.2184   8.8010 0001175  81.7991 278.3135 15.08839913 89851,6917.881,95.438,540.559,538.933,0.0
51747.0,STARLINK-3446,PAYLOAD,2023-09-29 13:44:05,15.08848675,0.0001409,53.2194,4.0404,77.9898,282.1252,7.819e-05,9.57e-06,0.0,0 STARLINK-3446,1 51747U 22016AK  23272.57228282  .00000957  00000-0  78190-4 0  9997,2 51747  53.2194   4.0404 0001409  77.9898 282.1252 15.08848675 88880,6917.854,95.437,540.694,538.744,0.0
51747.0,STARLINK-3446,PAYLOAD,2023-09-29 23:16:23,15.08849155,0.0001406,53.2185,2.2554,79.3182,280.7968,9.3745e-05,1.205e-05,0.0,0 STARLINK-3446,1 51747U 22016AK  23272.96972021  .00001205  00000-0  93745-4 0  9997,2 51747  53.2185   2.2554 0001406  79.3182 280.7968 15.08849155 88944,6917.852,95.437,540.69,538.745,0.0
51747.0,STARLINK-3446,PAYLOAD,2023-09-30 23:07:10,15.08849787,0.0001296,53.2179,357.7952,88.1079,272.0061,0.00022033,3.221e-05,0.0,0 STARLINK-3446,1 51747U 22016AK  23273.96331760  .00003221  00000-0  22033-3 0  9998,2 51747  53.2179 357.7952 0001296  88.1079 272.0061 15.08849787 90220,6917.85,95.437,540.612,538.819,0.0
51747.0,STARLINK-3446,PAYLOAD,2023-10-01 11:50:15,15.08851798,0.0001494,53.2174,355.4149,91.9407,268.1756,0.00012158,1.648e-05,0.0,0 STARLINK-3446,1 51747U 22016AK  23274.49323437  .00001648  00000-0  12158-3 0  9997,2 51747  53.2174 355.4149 0001494  91.9407 268.1756 15.08851798 89179,6917.844,95.437,540.743,538.676,0.0
51747.0,STARLINK-3446,PAYLOAD,2023-10-01 15:01:01,15.08855866,0.0001581,53.2166,354.8193,93.9034,266.2138,0.00019677,2.846e-05,0.0,0 STARLINK-3446,1 51747U 22016AK  23274.62571186  .00002846  00000-0  19677-3 0  9992,2 51747  53.2166 354.8193 0001581  93.9034 266.2138 15.08855866 89192,6917.832,95.437,540.791,538.603,0.0
51747.0,STARLINK-3446,PAYLOAD,2023-10-01 22:57:58,15.08832912,0.0001735,53.2176,353.3354,76.4624,283.6561,-0.00017734,-3.109e-05,0.0,0 STARLINK-3446,1 51747U 22016AK  23274.95692369 -.00003109  00000-0 -17734-3 0  9992,2 51747  53.2176 353.3354 0001735  76.4624 283.6561 15.08832912 90370,6917.902,95.438,540.967,538.567,0.0
51747.0,STARLINK-3446,PAYLOAD,2023-10-02 11:41:04,15.08802053,0.0001484,53.2177,350.9559,86.5095,273.6067,-0.00052184,-8.575e-05,0.0,0 STARLINK-3446,1 51747U 22016AK  23275.48686331 -.00008575  00000-0 -52184-3 0  9993,2 51747  53.2177 350.9559 0001484  86.5095 273.6067 15.08802053 90458,6917.996,95.44,540.888,538.835,0.0
51747.0,STARLINK-3446,PAYLOAD,2023-10-03 05:10:19,15.08832004,0.0001403,53.2168,347.6818,92.3027,267.8126,0.00028077,4.182e-05,0.0,0 STARLINK-3446,1 51747U 22016AK  23276.21550098  .00004182  00000-0  28077-3 0  9997,2 51747  53.2168 347.6818 0001403  92.3027 267.8126 15.08832004 90562,6917.905,95.438,540.74,538.799,0.0
51747.0,STARLINK-3446,PAYLOAD,2023-10-03 11:31:51,15.08860661,0.0001572,53.2166,346.4923,77.5513,282.5655,0.0011259,0.00017686,0.0,0 STARLINK-3446,1 51747U 22016AK  23276.48045730  .00017686  00000-0  11259-2 0  9994,2 51747  53.2166 346.4923 0001572  77.5513 282.5655 15.08860661 90602,6917.817,95.436,540.77,538.595,0.0
51747.0,STARLINK-3446,PAYLOAD,2023-10-04 11:22:37,15.08872296,0.0001651,53.2176,342.0343,73.9201,286.1973,0.00043432,6.637e-05,0.0,0 STARLINK-3446,1 51747U 22016AK  23277.47404825  .00006637  00000-0  43432-3 0  9991,2 51747  53.2176 342.0343 0001651  73.9201 286.1973 15.08872296 89623,6917.782,95.436,540.789,538.505,0.0
51747.0,STARLINK-3446,PAYLOAD,2023-10-04 20:54:56,15.08857826,0.0001743,53.2177,340.2518,79.31,280.8088,0.00019053,2.747e-05,0.0,0 STARLINK-3446,1 51747U 22016AK  23277.87148683  .00002747  00000-0  19053-3 0  9992,2 51747  53.2177 340.2518 0001743  79.3100 280.8088 15.08857826 89684,6917.826,95.436,540.897,538.485,0.0
51747.0,STARLINK-3446,PAYLOAD,2023-10-05 03:16:29,15.08847071,0.0001957,53.2183,339.0654,84.4235,275.698,0.00038662,5.871e-05,0.0,0 STARLINK-3446,1 51747U 22016AK  23278.13644792  .00005871  00000-0  38662-3 0  9992,2 51747  53.2183 339.0654 0001957  84.4235 275.6980 15.08847071 90856,6917.859,95.437,541.078,538.37,0.0
51747.0,STARLINK-3446,PAYLOAD,2023-10-05 11:13:24,15.08850007,0.0001731,53.218,337.577,89.083,271.036,-6.7658e-05,-1.365e-05,0.0,0 STARLINK-3446,1 51747U 22016AK  23278.46764530 -.00001365  00000-0 -67658-4 0  9995,2 51747  53.2180 337.5770 0001731  89.0830 271.0360 15.08850007 89771,6917.85,95.437,540.912,538.517,0.0
